[{"OBJECT_NAME":"STARLINK-3699","OBJECT_ID":"2022-025L","EPOCH":"2026-03-09T04:05:59.416512","MEAN_MOTION":15.06396713,"ECCENTRICITY":0.00014968,"INCLINATION":53.0559,"RA_OF_ASC_NODE":33.159,"ARG_OF_PERICENTER":81.9854,"MEAN_ANOMALY":278.1305,"EPHEMERIS_TYPE":0,"CLASSIFICATION_TYPE":"U","NORAD_CAT_ID":51966,"ELEMENT_SET_NO":999,"REV_AT_EPOCH":22084,"BSTAR":3.0695578e-5,"MEAN_MOTION_DOT":1.76e-6,"MEAN_MOTION_DDOT":0},{"OBJECT_NAME":"COSMOS 397 DEB","OBJECT_ID":"1971-015K","EPOCH":"2026-03-09T22:19:18.882624","MEAN_MOTION":13.64687983,"ECCENTRICITY":0.06428394,"INCLINATION":65.8167,"RA_OF_ASC_NODE":317.2661,"ARG_OF_PERICENTER":130.2225,"MEAN_ANOMALY":235.6932,"EPHEMERIS_TYPE":0,"CLASSIFICATION_TYPE":"U","NORAD_CAT_ID":5016,"ELEMENT_SET_NO":999,"REV_AT_EPOCH":63965,"BSTAR":0.0010600435,"MEAN_MOTION_DOT":3.54e-5,"MEAN_MOTION_DDOT":0}]
